OBJECT_NAME,OBJECT_ID,EPOCH,MEAN_MOTION,ECCENTRICITY,INCLINATION,RA_OF_ASC_NODE,ARG_OF_PERICENTER,MEAN_ANOMALY,EPHEMERIS_TYPE,CLASSIFICATION_TYPE,NORAD_CAT_ID,ELEMENT_SET_NO,REV_AT_EPOCH,BSTAR,MEAN_MOTION_DOT,MEAN_MOTION_DDOT
COSMOS 2251 DEB,1993-036AJJ,2024-06-01T13:48:13.424832,14.65037329,0.0045456,74.0263,115.302,328.276,31.567,0,U,35280,999,79187,0.0035013,0.00019088,0
COSMOS 2251 DEB,1993-036AJK,2024-05-31T09:06:54.342432,14.83539201,0.0011651,73.9928,292.0228,12.9981,347.1494,0,U,35281,999,79882,0.0035367,0.0002925,0
COSMOS 2251 DEB,1993-036AJL,2024-06-01T03:07:48.272448,14.87062251,0.0063672,74.1012,52.4826,176.4271,183.7378,0,U,35282,999,79655,0.0050005,0.00046824,0
COSMOS 2251 DEB,1993-036AJN,2024-05-31T21:03:41.254848,14.37162351,0.0015683,74.0491,214.4407,71.2595,46.0699,0,U,35284,999,57479,0.00018837,5.35e-06,0
COSMOS 2251 DEB,1993-036AJR,2024-05-30T05:00:51.276384,14.35487668,0.0017029,74.0309,227.3477,103.8073,287.3016,0,U,35287,999,78832,0.00016524,4.5e-06,0
COSMOS 2251 DEB,1993-036AJS,2024-05-31T23:31:11.952480,14.54936276,0.0041624,73.9551,9.9972,10.2879,349.9125,0,U,35288,999,79705,0.0010657,4.61e-05,0
COSMOS 2251 DEB,1993-036AJU,2024-05-25T19:11:02.899968,14.59020572,0.0009016,74.0144,78.4156,292.5478,67.4733,0,U,35290,999,79825,0.0023012,0.00010804,0
COSMOS 2251 DEB,1993-036AKA,2024-05-31T18:39:16.570368,14.66065075,0.0011002,74.0433,53.9623,210.2788,149.7747,0,U,35432,999,79171,0.0024568,0.00013491,0
COSMOS 2251 DEB,1993-036AKB,2024-06-01T02:49:15.220992,14.33187768,0.0026851,74.0334,282.6866,116.5077,57.8824,0,U,35433,999,78558,0.00041137,1.109e-05,0
COSMOS 2251 DEB,1993-036AKC,2024-05-29T08:49:04.636992,14.22343396,0.0091839,74.0418,146.3051,350.5346,9.4064,0,U,35434,999,78111,0.00073325,1.677e-05,0
COSMOS 2251 DEB,1993-036AKD,2024-05-30T05:50:29.154336,14.57100637,0.0018414,74.0192,110.8147,322.1722,102.5853,0,U,35435,999,79299,0.0020275,9.14e-05,0
COSMOS 2251 DEB,1993-036AKH,2024-05-27T09:36:26.030592,13.8781142,0.0251103,74.0258,17.9469,312.4505,226.0745,0,U,35439,999,76116,0.0013302,2.003e-05,0
COSMOS 2251 DEB,1993-036AKJ,2024-05-31T12:12:02.308320,14.63078877,0.0074823,74.0166,208.7499,130.6364,230.1343,0,U,35440,999,60554,0.00089572,4.761e-05,0
COSMOS 2251 DEB,1993-036AKK,2024-05-26T02:27:39.604608,14.48640737,0.0046117,74.1409,284.1779,337.7325,22.1831,0,U,35441,999,79281,0.0019217,7.311e-05,0
COSMOS 2251 DEB,1993-036AKL,2024-05-31T06:44:29.894784,14.58996307,0.0014075,74.0365,109.284,269.2443,90.7109,0,U,35442,999,79107,0.0024324,0.00011426,0
COSMOS 2251 DEB,1993-036AKM,2024-05-28T21:22:40.450080,14.5243992,0.0161223,74.004,350.773,270.6259,87.6432,0,U,35443,999,78592,0.0015031,7.244e-05,0
COSMOS 2251 DEB,1993-036AKP,2024-05-30T09:56:28.605408,14.45181766,0.0178457,74.0418,279.5753,148.1928,213.016,0,U,35445,999,79176,0.0029301,0.00012483,0
COSMOS 2251 DEB,1993-036AKQ,2024-05-30T02:13:43.370976,14.5350532,0.0077598,74.0456,299.315,200.9278,158.8705,0,U,35446,999,79844,0.00020048,8.4e-06,0
COSMOS 2251 DEB,1993-036AKS,2024-05-31T18:57:38.185056,14.47298111,0.0008389,73.9075,71.4127,348.6932,11.4036,0,U,35448,999,79212,0.0012677,4.617e-05,0
COSMOS 2251 DEB,1993-036AKV,2024-05-30T02:38:30.545664,14.95770721,0.0079292,73.94,194.8234,219.8059,139.7293,0,U,35451,999,81458,0.00078521,9.299e-05,0
COSMOS 2251 DEB,1993-036AKX,2024-05-28T20:51:09.572256,14.3327611,0.007441,74.0118,335.5131,238.0049,121.3857,0,U,35453,999,78216,0.00074353,2.084e-05,0
COSMOS 2251 DEB,1993-036AKZ,2024-05-30T06:30:16.214400,14.41324225,0.011442,74.0297,262.6923,144.2428,216.646,0,U,35455,999,78429,0.001493,5.199e-05,0
COSMOS 2251 DEB,1993-036ALA,2024-05-17T17:34:37.001280,14.52622107,0.0080435,73.9577,140.9187,123.7811,237.1045,0,U,35456,999,79421,0.0031165,0.00013308,0
COSMOS 2251 DEB,1993-036ALD,2024-05-27T06:47:08.905344,14.35637753,0.0018382,73.8715,155.0662,220.0064,139.9735,0,U,35459,999,50255,0.00031333,8.78e-06,0
COSMOS 2251 DEB,1993-036ALG,2024-05-30T19:32:44.150496,14.22181845,0.0098551,74.0422,202.3855,12.4273,347.9267,0,U,35462,999,78009,0.0018121,4.199e-05,0
COSMOS 2251 DEB,1993-036ALJ,2024-05-30T23:19:05.958336,14.91682017,0.0023843,74.003,137.4295,48.9136,343.2359,0,U,35464,999,80526,0.0030017,0.00030453,0
COSMOS 2251 DEB,1993-036ALK,2024-05-29T10:28:10.372224,14.412165,0.006492,74.0058,163.4618,97.4188,263.435,0,U,35465,999,79131,0.00037001,1.198e-05,0
COSMOS 2251 DEB,1993-036ALP,2024-05-31T06:06:19.474848,14.48770812,0.0079056,74.0176,356.6215,287.3428,71.9096,0,U,35469,999,79991,0.0001303,4.81e-06,0
COSMOS 2251 DEB,1993-036ALU,2024-06-01T09:54:37.331712,14.92035923,0.0004517,73.9822,275.2627,323.2106,102.8324,0,U,35474,999,80062,0.0047115,0.00048123,0
COSMOS 2251 DEB,1993-036ALV,2024-05-29T08:46:20.102880,14.52784873,0.0030543,74.0313,162.6756,4.151,355.9899,0,U,35475,999,57399,0.001451,5.973e-05,0
