COSMOS 2251 DEB         
1 35280U 93036AJJ 24153.57515538  .00019088  00000+0  35013-2 0  9992
2 35280  74.0263 115.3020 0045456 328.2760  31.5670 14.65037329791870
COSMOS 2251 DEB         
1 35281U 93036AJK 24152.37979563  .00029250  00000+0  35367-2 0  9996
2 35281  73.9928 292.0228 0011651  12.9981 347.1494 14.83539201798820
COSMOS 2251 DEB         
1 35282U 93036AJL 24153.13041982  .00046824  00000+0  50005-2 0  9999
2 35282  74.1012  52.4826 0063672 176.4271 183.7378 14.87062251796551
COSMOS 2251 DEB         
1 35284U 93036AJN 24152.87756082  .00000535  00000+0  18837-3 0  9992
2 35284  74.0491 214.4407 0015683  71.2595  46.0699 14.37162351574792
COSMOS 2251 DEB         
1 35287U 93036AJR 24151.20892681  .00000450  00000+0  16524-3 0  9994
2 35287  74.0309 227.3477 0017029 103.8073 287.3016 14.35487668788320
COSMOS 2251 DEB         
1 35288U 93036AJS 24152.97999945  .00004610  00000+0  10657-2 0  9993
2 35288  73.9551   9.9972 0041624  10.2879 349.9125 14.54936276797056
COSMOS 2251 DEB         
1 35290U 93036AJU 24146.79933912  .00010804  00000+0  23012-2 0  9992
2 35290  74.0144  78.4156 0009016 292.5478  67.4733 14.59020572798251
COSMOS 2251 DEB         
1 35432U 93036AKA 24152.77727512  .00013491  00000+0  24568-2 0  9994
2 35432  74.0433  53.9623 0011002 210.2788 149.7747 14.66065075791714
COSMOS 2251 DEB         
1 35433U 93036AKB 24153.11753728  .00001109  00000+0  41137-3 0  9997
2 35433  74.0334 282.6866 0026851 116.5077  57.8824 14.33187768785583
COSMOS 2251 DEB         
1 35434U 93036AKC 24150.36741478  .00001677  00000+0  73325-3 0  9995
2 35434  74.0418 146.3051 0091839 350.5346   9.4064 14.22343396781119
COSMOS 2251 DEB         
1 35435U 93036AKD 24151.24339299  .00009140  00000+0  20275-2 0  9996
2 35435  74.0192 110.8147 0018414 322.1722 102.5853 14.57100637792998
COSMOS 2251 DEB         
1 35439U 93036AKH 24148.40030128  .00002003  00000+0  13302-2 0  9997
2 35439  74.0258  17.9469 0251103 312.4505 226.0745 13.87811420761162
COSMOS 2251 DEB         
1 35440U 93036AKJ 24152.50836005  .00004761  00000+0  89572-3 0  9999
2 35440  74.0166 208.7499 0074823 130.6364 230.1343 14.63078877605545
COSMOS 2251 DEB         
1 35441U 93036AKK 24147.10254172  .00007311  00000+0  19217-2 0  9991
2 35441  74.1409 284.1779 0046117 337.7325  22.1831 14.48640737792819
COSMOS 2251 DEB         
1 35442U 93036AKL 24152.28090156  .00011426  00000+0  24324-2 0  9994
2 35442  74.0365 109.2840 0014075 269.2443  90.7109 14.58996307791078
COSMOS 2251 DEB         
1 35443U 93036AKM 24149.89074595  .00007244  00000+0  15031-2 0  9995
2 35443  74.0040 350.7730 0161223 270.6259  87.6432 14.52439920785927
COSMOS 2251 DEB         
1 35445U 93036AKP 24151.41421997  .00012483  00000+0  29301-2 0  9996
2 35445  74.0418 279.5753 0178457 148.1928 213.0160 14.45181766791766
COSMOS 2251 DEB         
1 35446U 93036AKQ 24151.09286309  .00000840  00000+0  20048-3 0  9991
2 35446  74.0456 299.3150 0077598 200.9278 158.8705 14.53505320798447
COSMOS 2251 DEB         
1 35448U 93036AKS 24152.79002529  .00004617  00000+0  12677-2 0  9995
2 35448  73.9075  71.4127 0008389 348.6932  11.4036 14.47298111792126
COSMOS 2251 DEB         
1 35451U 93036AKV 24151.11007576  .00009299  00000+0  78521-3 0  9993
2 35451  73.9400 194.8234 0079292 219.8059 139.7293 14.95770721814580
COSMOS 2251 DEB         
1 35453U 93036AKX 24149.86886079  .00002084  00000+0  74353-3 0  9991
2 35453  74.0118 335.5131 0074410 238.0049 121.3857 14.33276110782165
COSMOS 2251 DEB         
1 35455U 93036AKZ 24151.27102100  .00005199  00000+0  14930-2 0  9991
2 35455  74.0297 262.6923 0114420 144.2428 216.6460 14.41324225784293
COSMOS 2251 DEB         
1 35456U 93036ALA 24138.73237270  .00013308  00000+0  31165-2 0  9995
2 35456  73.9577 140.9187 0080435 123.7811 237.1045 14.52622107794211
COSMOS 2251 DEB         
1 35459U 93036ALD 24148.28274196  .00000878  00000+0  31333-3 0  9993
2 35459  73.8715 155.0662 0018382 220.0064 139.9735 14.35637753502558
COSMOS 2251 DEB         
1 35462U 93036ALG 24151.81439989  .00004199  00000+0  18121-2 0  9992
2 35462  74.0422 202.3855 0098551  12.4273 347.9267 14.22181845780091
COSMOS 2251 DEB         
1 35464U 93036ALJ 24151.97159674  .00030453  00000+0  30017-2 0  9991
2 35464  74.0030 137.4295 0023843  48.9136 343.2359 14.91682017805269
COSMOS 2251 DEB         
1 35465U 93036ALK 24150.43623116  .00001198  00000+0  37001-3 0  9994
2 35465  74.0058 163.4618 0064920  97.4188 263.4350 14.41216500791314
COSMOS 2251 DEB         
1 35469U 93036ALP 24152.25439207  .00000481  00000+0  13030-3 0  9996
2 35469  74.0176 356.6215 0079056 287.3428  71.9096 14.48770812799912
COSMOS 2251 DEB         
1 35474U 93036ALU 24153.41293208  .00048123  00000+0  47115-2 0  9995
2 35474  73.9822 275.2627 0004517 323.2106 102.8324 14.92035923800625
COSMOS 2251 DEB         
1 35475U 93036ALV 24150.36551045  .00005973  00000+0  14510-2 0  9992
2 35475  74.0313 162.6756 0030543   4.1510 355.9899 14.52784873573993
